[{"OBJECT_NAME":"SPHINX\/FRAZIER","OBJECT_ID":"2025-052Y","EPOCH":"2026-03-09T16:24:33.293952","MEAN_MOTION":15.2264428,"ECCENTRICITY":0.00072416,"INCLINATION":97.4068,"RA_OF_ASC_NODE":323.0895,"ARG_OF_PERICENTER":127.8815,"MEAN_ANOMALY":232.3077,"EPHEMERIS_TYPE":0,"CLASSIFICATION_TYPE":"U","NORAD_CAT_ID":63232,"ELEMENT_SET_NO":999,"REV_AT_EPOCH":5472,"BSTAR":0.00035501675,"MEAN_MOTION_DOT":8.199e-5,"MEAN_MOTION_DDOT":0},{"OBJECT_NAME":"OBJECT AL","OBJECT_ID":"2025-313AL","EPOCH":"2026-03-09T21:47:37.500288","MEAN_MOTION":15.21924199,"ECCENTRICITY":0.00104977,"INCLINATION":97.3994,"RA_OF_ASC_NODE":145.2165,"ARG_OF_PERICENTER":356.408,"MEAN_ANOMALY":3.7079,"EPHEMERIS_TYPE":0,"CLASSIFICATION_TYPE":"U","NORAD_CAT_ID":67282,"ELEMENT_SET_NO":999,"REV_AT_EPOCH":1085,"BSTAR":0.00031499463,"MEAN_MOTION_DOT":7.118e-5,"MEAN_MOTION_DDOT":0}]
